IRIDIUM 63              
1 25286U 98021B   25213.52487302  .00000321  00000+0  10266-3 0  9990
2 25286  86.3939  63.1027 0002264  91.2920 268.8536 14.36571669430620
IRIDIUM 69              
1 25319U 98026A   25212.77338963  .00000448  00000+0  13314-3 0  9993
2 25319  86.3935  76.5758 0001174 171.4688 188.6532 14.41002344429485
IRIDIUM 71              
1 25320U 98026B   25212.70499714  .00000350  00000+0  10227-3 0  9992
2 25320  86.3933  71.2867 0001170  15.2582 344.8653 14.41186687430005
IRIDIUM 73              
1 25344U 98032C   25212.93364444  .00000570  00000+0  13677-3 0  9997
2 25344  86.4405  27.8018 0002076 107.9631 252.1801 14.51754040437054
IRIDIUM 82              
1 25467U 98051A   25213.13081472  .00028140  00000+0  75957-3 0  9996
2 25467  86.3633  87.6070 0084258 124.5196 236.4048 15.34014330430848
